NORAD_CAT_ID,OBJECT_NAME,OBJECT_TYPE,EPOCH,MEAN_MOTION,ECCENTRICITY,INCLINATION,RA_OF_ASC_NODE,ARG_OF_PERICENTER,MEAN_ANOMALY,BSTAR,MEAN_MOTION_DOT,MEAN_MOTION_DDOT,TLE_LINE0,TLE_LINE1,TLE_LINE2,SEMIMAJOR_AXIS,PERIOD,APOGEE,PERIGEE,DECAYED
56473.0,STARLINK-5486,PAYLOAD,2023-10-09 14:00:01,14.98274696,0.0003186,70.0013,188.5824,270.0591,236.5568,0.0075298,0.00090796,0.0,0 STARLINK-5486,1 56473U 23064AB  23282.58334491  .00090796  00000-0  75298-2 0  9998,2 56473  70.0013 188.5824 0003186 270.0591 236.5568 14.98274696  5923,6950.364,96.111,574.443,570.015,0.0
56473.0,STARLINK-5486,PAYLOAD,2023-10-09 22:00:00,14.98350682,0.0003176,70.0016,187.742,271.5288,232.5227,-0.0032307,-0.00038452,0.0,0 STARLINK-5486,1 56473U 23064AB  23282.91667824 -.00038452  00000-0 -32307-2 0  9991,2 56473  70.0016 187.7420 0003176 271.5288 232.5227 14.98350682  5712,6950.129,96.106,574.201,569.787,0.0
56473.0,STARLINK-5486,PAYLOAD,2023-10-10 02:09:58,14.98324944,0.0003282,70.0002,187.3054,286.676,73.4038,-3.4888e-05,-5.09e-06,0.0,0 STARLINK-5486,1 56473U 23064AB  23283.09026033 -.00000509  00000-0 -34888-4 0  9992,2 56473  70.0002 187.3054 0003282 286.6760  73.4038 14.98324944 24047,6950.209,96.107,574.355,569.792,0.0
56473.0,STARLINK-5486,PAYLOAD,2023-10-10 03:46:06,14.98326707,0.0003292,70.0003,187.1373,287.2154,72.8644,-1.5823e-05,-2.82e-06,0.0,0 STARLINK-5486,1 56473U 23064AB  23283.15701889 -.00000282  00000-0 -15823-4 0  9994,2 56473  70.0003 187.1373 0003292 287.2154  72.8644 14.98326707 23690,6950.203,96.107,574.356,569.78,0.0
56473.0,STARLINK-5486,PAYLOAD,2023-10-10 21:23:35,14.98326352,0.0002699,70.0,185.2838,270.7056,89.3793,-2.9401e-05,-4.44e-06,0.0,0 STARLINK-5486,1 56473U 23064AB  23283.89138021 -.00000444  00000-0 -29401-4 0  9994,2 56473  70.0000 185.2838 0002699 270.7056  89.3793 14.98326352 23807,6950.204,96.107,573.945,570.193,0.0
56473.0,STARLINK-5486,PAYLOAD,2023-10-11 02:11:59,14.98329874,0.0002846,69.9995,184.7791,270.0276,90.0556,3.9071e-05,3.73e-06,0.0,0 STARLINK-5486,1 56473U 23064AB  23284.09165634  .00000373  00000-0  39071-4 0  9990,2 56473  69.9995 184.7791 0002846 270.0276  90.0556 14.98329874 24191,6950.193,96.107,574.036,570.08,0.0
56473.0,STARLINK-5486,PAYLOAD,2023-10-11 10:12:39,14.9833222,0.0002907,69.9997,183.9368,275.4621,84.6207,-2.9835e-05,-4.49e-06,0.0,0 STARLINK-5486,1 56473U 23064AB  23284.42545684 -.00000449  00000-0 -29835-4 0  9997,2 56473  69.9997 183.9368 0002907 275.4621  84.6207 14.98332220 23881,6950.186,96.107,574.071,570.031,0.0
56473.0,STARLINK-5486,PAYLOAD,2023-10-11 18:13:20,14.98321719,0.0002768,69.9998,183.0955,276.3479,83.7364,4.5719e-05,4.52e-06,0.0,0 STARLINK-5486,1 56473U 23064AB  23284.75926278  .00000452  00000-0  45719-4 0  9996,2 56473  69.9998 183.0955 0002768 276.3479  83.7364 14.98321719 24292,6950.218,96.108,574.007,570.16,0.0
56473.0,STARLINK-5486,PAYLOAD,2023-10-12 03:50:08,14.98327084,0.0002471,70.0005,182.0859,269.5085,90.5791,0.00010319,1.138e-05,0.0,0 STARLINK-5486,1 56473U 23064AB  23285.15981909  .00001138  00000-0  10319-3 0  9992,2 56473  70.0005 182.0859 0002471 269.5085  90.5791 14.98327084 24352,6950.202,96.107,573.784,570.35,0.0
56473.0,STARLINK-5486,PAYLOAD,2023-10-12 10:14:40,14.98332882,0.000255,70.0007,181.4129,280.6189,79.4683,3.0668e-05,2.73e-06,0.0,0 STARLINK-5486,1 56473U 23064AB  23285.42685770  .00000273  00000-0  30668-4 0  9998,2 56473  70.0007 181.4129 0002550 280.6189  79.4683 14.98332882 24037,6950.184,96.107,573.821,570.277,0.0
56473.0,STARLINK-5486,PAYLOAD,2023-10-12 21:27:36,14.98331503,0.0002764,70.0001,180.2352,271.5175,88.5667,4.9616e-05,4.99e-06,0.0,0 STARLINK-5486,1 56473U 23064AB  23285.89417658  .00000499  00000-0  49616-4 0  9990,2 56473  70.0001 180.2352 0002764 271.5175  88.5667 14.98331503 24107,6950.188,96.107,573.974,570.132,0.0
56473.0,STARLINK-5486,PAYLOAD,2023-10-13 10:16:41,14.98337876,0.0002748,70.0003,178.8883,277.5664,82.5183,-6.0778e-05,-8.18e-06,0.0,0 STARLINK-5486,1 56473U 23064AB  23286.42825417 -.00000818  00000-0 -60778-4 0  9995,2 56473  70.0003 178.8883 0002748 277.5664  82.5183 14.98337876 24546,6950.169,96.106,573.943,570.124,0.0
56473.0,STARLINK-5486,PAYLOAD,2023-10-13 19:53:29,14.9832843,0.0002834,70.0001,177.8795,272.0346,88.0488,2.1135e-05,1.59e-06,0.0,0 STARLINK-5486,1 56473U 23064AB  23286.82881729  .00000159  00000-0  21135-4 0  9997,2 56473  70.0001 177.8795 0002834 272.0346  88.0488 14.98328430 24600,6950.198,96.107,574.032,570.093,0.0
56473.0,STARLINK-5486,PAYLOAD,2023-10-13 21:29:37,14.98328579,0.000283,70.0,177.711,272.269,87.8145,2.1093e-05,1.59e-06,0.0,0 STARLINK-5486,1 56473U 23064AB  23286.89557722  .00000159  00000-0  21093-4 0  9990,2 56473  70.0000 177.7110 0002830 272.2690  87.8145 14.98328579 24251,6950.197,96.107,574.029,570.095,0.0
56473.0,STARLINK-5486,PAYLOAD,2023-10-14 02:18:01,14.98337868,0.0002867,69.9996,177.205,268.6148,91.4683,9.329e-05,1.021e-05,0.0,0 STARLINK-5486,1 56473U 23064AB  23287.09584812  .00001021  00000-0  93290-4 0  9990,2 56473  69.9996 177.2050 0002867 268.6148  91.4683 14.98337868 24649,6950.169,96.106,574.026,570.041,0.0
56473.0,STARLINK-5486,PAYLOAD,2023-10-14 10:18:42,14.98334432,0.0002677,70.0017,176.3648,283.885,76.2011,-0.00018005,-2.241e-05,0.0,0 STARLINK-5486,1 56473U 23064AB  23287.42965794 -.00002241  00000-0 -18005-3 0  9996,2 56473  70.0017 176.3648 0002677 283.8850  76.2011 14.98334432 24692,6950.179,96.107,573.905,570.184,0.0
56473.0,STARLINK-5486,PAYLOAD,2023-10-14 19:55:31,14.98319939,0.0002972,69.9993,175.3525,270.5513,89.5306,-9.6681e-05,-1.246e-05,0.0,0 STARLINK-5486,1 56473U 23064AB  23287.83022457 -.00001246  00000-0 -96681-4 0  9992,2 56473  69.9993 175.3525 0002972 270.5513  89.5306 14.98319939 24758,6950.224,96.108,574.155,570.023,0.0
56473.0,STARLINK-5486,PAYLOAD,2023-10-14 21:31:39,14.98318606,0.0002999,70.0002,175.1847,270.5436,89.5379,-9.7456e-05,-1.255e-05,0.0,0 STARLINK-5486,1 56473U 23064AB  23287.89698583 -.00001255  00000-0 -97456-4 0  9998,2 56473  70.0002 175.1847 0002999 270.5436  89.5379 14.98318606 24402,6950.228,96.108,574.177,570.009,0.0
56473.0,STARLINK-5486,PAYLOAD,2023-10-15 10:20:43,14.98328215,0.0003065,69.9996,173.839,271.178,88.9027,-5.084e-05,-7e-06,0.0,0 STARLINK-5486,1 56473U 23064AB  23288.43106002 -.00000700  00000-0 -50840-4 0  9999,2 56473  69.9996 173.8390 0003065 271.1780  88.9027 14.98328215 24841,6950.198,96.107,574.194,569.933,0.0
56473.0,STARLINK-5486,PAYLOAD,2023-10-15 21:33:39,14.98329172,0.0003188,69.9993,172.6607,270.4494,89.63,4.1797e-05,4.06e-06,0.0,0 STARLINK-5486,1 56473U 23064AB  23288.89837693  .00000406  00000-0  41797-4 0  9998,2 56473  69.9993 172.6607 0003188 270.4494  89.6300 14.98329172 24559,6950.195,96.107,574.276,569.845,0.0
56473.0,STARLINK-5486,PAYLOAD,2023-10-16 02:22:03,14.98337788,0.0003117,69.9992,172.1558,269.2162,90.864,4.6721e-05,4.65e-06,0.0,0 STARLINK-5486,1 56473U 23064AB  23289.09865092  .00000465  00000-0  46721-4 0  9992,2 56473  69.9992 172.1558 0003117 269.2162  90.8640 14.98337788 24944,6950.169,96.106,574.2,569.867,0.0
56473.0,STARLINK-5486,PAYLOAD,2023-10-16 16:47:16,14.98325107,0.0003257,69.9991,170.6409,269.6694,90.4092,0.00015575,1.766e-05,0.0,0 STARLINK-5486,1 56473U 23064AB  23289.69949467  .00001766  00000-0  15575-3 0  9994,2 56473  69.9991 170.6409 0003257 269.6694  90.4092 14.98325107 25030,6950.208,96.107,574.337,569.809,0.0
56473.0,STARLINK-5486,PAYLOAD,2023-10-17 08:48:36,14.9833393,0.0003243,69.9992,168.9573,270.6154,89.4633,0.0001198,1.337e-05,0.0,0 STARLINK-5486,1 56473U 23064AB  23290.36708979  .00001337  00000-0  11980-3 0  9991,2 56473  69.9992 168.9573 0003243 270.6154  89.4633 14.98333930 25134,6950.181,96.107,574.3,569.792,0.0
56473.0,STARLINK-5486,PAYLOAD,2023-10-18 02:26:05,14.98352831,0.0003277,69.9993,167.109,267.9636,92.1147,-0.00041757,-5.075e-05,0.0,0 STARLINK-5486,1 56473U 23064AB  23291.10144991 -.00005075  00000-0 -41757-3 0  9992,2 56473  69.9993 167.1090 0003277 267.9636  92.1147 14.98352831 24884,6950.122,96.106,574.265,569.71,0.0
56473.0,STARLINK-5486,PAYLOAD,2023-10-18 08:50:37,14.9833638,0.0003013,70.0,166.4349,265.9707,94.1108,-0.00017765,-2.212e-05,0.0,0 STARLINK-5486,1 56473U 23064AB  23291.36849488 -.00002212  00000-0 -17765-3 0  9995,2 56473  70.0000 166.4349 0003013 265.9707  94.1108 14.98336380 25285,6950.173,96.107,574.132,569.944,0.0
56473.0,STARLINK-5486,PAYLOAD,2023-10-18 21:39:41,14.98363805,0.0003356,70.0002,165.0873,265.6783,94.3993,-0.00053004,-6.417e-05,0.0,0 STARLINK-5486,1 56473U 23064AB  23291.90256663 -.00006417  00000-0 -53004-3 0  9999,2 56473  70.0002 165.0873 0003356 265.6783  94.3993 14.98363805 25360,6950.088,96.105,574.286,569.621,0.0
56473.0,STARLINK-5486,PAYLOAD,2023-10-19 02:28:06,14.98335912,0.0002809,70.0006,164.5821,268.9023,91.1814,8.7272e-07,-8.3e-07,0.0,0 STARLINK-5486,1 56473U 23064AB  23292.10284951 -.00000083  00000-0  87272-6 0  9992,2 56473  70.0006 164.5821 0002809 268.9023  91.1814 14.98335912 25394,6950.175,96.107,573.992,570.087,0.0
56473.0,STARLINK-5486,PAYLOAD,2023-10-19 21:41:42,14.98333608,0.0002849,70.0003,162.5622,268.9589,91.1244,6.9651e-05,7.38e-06,0.0,0 STARLINK-5486,1 56473U 23064AB  23292.90396632  .00000738  00000-0  69651-4 0  9995,2 56473  70.0003 162.5622 0002849 268.9589  91.1244 14.98333608 25150,6950.182,96.107,574.027,570.067,0.0
56473.0,STARLINK-5486,PAYLOAD,2023-10-20 00:53:58,14.98333034,0.0002856,70.0003,162.2256,268.8406,91.2426,6.0837e-05,6.33e-06,0.0,0 STARLINK-5486,1 56473U 23064AB  23293.03748654  .00000633  00000-0  60837-4 0  9996,2 56473  70.0003 162.2256 0002856 268.8406  91.2426 14.98333034 25173,6950.184,96.107,574.033,570.064,0.0
56473.0,STARLINK-5486,PAYLOAD,2023-10-20 15:19:12,14.98325515,0.0002706,70.001,160.7117,269.2117,90.8732,-8.8475e-05,-1.148e-05,0.0,0 STARLINK-5486,1 56473U 23064AB  23293.63833616 -.00001148  00000-0 -88475-4 0  9997,2 56473  70.0010 160.7117 0002706 269.2117  90.8732 14.98325515 25628,6950.207,96.107,573.952,570.191,0.0
